GLOBALSTAR M075         
1 37192U 10054E   25098.26466395 -.00000078  00000+0  14130-3 0  9994
2 37192  51.9969  34.4319 0000489  73.4808  81.1005 12.62263106667012
GLOBALSTAR M073         
1 37193U 10054F   25098.55702578 -.00000054  00000+0  27612-3 0  9996
2 37193  52.0067 307.3141 0000817 101.3770 300.6290 12.62270245669045
GLOBALSTAR M083         
1 37739U 11033A   25098.57981931 -.00000075  00000+0  16276-3 0  9991
2 37739  51.9851 256.0677 0000897 101.2150 345.4412 12.62262537638069
GLOBALSTAR M088         
1 37740U 11033B   25098.45848851 -.00000087  00000+0  92633-4 0  9998
2 37740  51.9717 161.9866 0000439 113.1431 262.7339 12.62265122633597
GLOBALSTAR M091         
1 37741U 11033C   25098.50158352 -.00000080  00000+0  13290-3 0  9999
2 37741  51.9975 125.2862 0000520  84.6576  66.3234 12.62266869634385
GLOBALSTAR M085         
1 37742U 11033D   25098.41160575 -.00000085  00000+0  10495-3 0  9999
2 37742  51.9861  76.6574 0000569  73.0454  89.0345 12.62267122634882
GLOBALSTAR M081         
1 37743U 11033E   25098.51145957 -.00000089  00000+0  84763-4 0  9992
2 37743  51.9953  79.0974 0000501  94.5244  41.4569 12.62262587635046
GLOBALSTAR M089         
1 37744U 11033F   25098.24057844 -.00000085  00000+0  10679-3 0  9990
2 37744  51.9956  34.1632 0000303  88.1771  76.6722 12.62268309635855
